NORAD_CAT_ID,OBJECT_NAME,OBJECT_TYPE,EPOCH,MEAN_MOTION,ECCENTRICITY,INCLINATION,RA_OF_ASC_NODE,ARG_OF_PERICENTER,MEAN_ANOMALY,BSTAR,MEAN_MOTION_DOT,MEAN_MOTION_DDOT,TLE_LINE0,TLE_LINE1,TLE_LINE2,SEMIMAJOR_AXIS,PERIOD,APOGEE,PERIGEE,DECAYED
52470.0,STARLINK-3859,PAYLOAD,2024-05-22 04:53:30,15.08844471,0.0001498,53.2167,126.2018,75.8853,284.2306,-6.7383e-05,-1.36e-05,0.0,0 STARLINK-3859,1 52470U 22049V   24143.20382104 -.00001360  00000-0 -67383-4 0  9992,2 52470  53.2167 126.2018 0001498  75.8853 284.2306 15.08844471113307,6917.867,95.437,540.768,538.695,0.0
52470.0,STARLINK-3859,PAYLOAD,2024-05-22 06:28:53,15.08836456,0.0001333,53.2168,125.9028,93.697,266.4174,7.6983e-05,9.37e-06,0.0,0 STARLINK-3859,1 52470U 22049V   24143.27006186  .00000937  00000-0  76983-4 0  9995,2 52470  53.2168 125.9028 0001333  93.6970 266.4174 15.08836456113153,6917.891,95.438,540.678,538.834,0.0
52470.0,STARLINK-3859,PAYLOAD,2024-05-23 06:19:40,15.08840507,0.0001438,53.2169,121.4438,86.0539,274.0618,0.00014454,2.013e-05,0.0,0 STARLINK-3859,1 52470U 22049V   24144.26365987  .00002013  00000-0  14454-3 0  9993,2 52470  53.2169 121.4438 0001438  86.0539 274.0618 15.08840507113467,6917.879,95.438,540.739,538.749,0.0
52470.0,STARLINK-3859,PAYLOAD,2024-05-24 07:45:50,15.0884775,0.0001393,53.2172,116.6857,77.7952,282.3196,0.00012621,1.722e-05,0.0,0 STARLINK-3859,1 52470U 22049V   24145.32349564  .00001722  00000-0  12621-3 0  9994,2 52470  53.2172 116.6857 0001393  77.7952 282.3196 15.08847750113626,6917.857,95.437,540.685,538.758,0.0
52470.0,STARLINK-3859,PAYLOAD,2024-05-24 22:04:18,15.08843545,0.0002111,53.219,114.0026,141.7126,218.4017,-4.0993e-05,-9.41e-06,0.0,0 STARLINK-3859,1 52470U 22049V   24145.91966068 -.00000941  00000-0 -40993-4 0  9991,2 52470  53.2190 114.0026 0002111 141.7126 218.4017 15.08843545113710,6917.87,95.437,541.195,538.274,0.0
52470.0,STARLINK-3859,PAYLOAD,2024-05-25 04:25:51,15.08840389,0.0001602,53.2174,112.8208,86.9623,273.1552,2.5832e-05,1.23e-06,0.0,0 STARLINK-3859,1 52470U 22049V   24146.18462236  .00000123  00000-0  25832-4 0  9994,2 52470  53.2174 112.8208 0001602  86.9623 273.1552 15.08840389113597,6917.879,95.438,540.852,538.636,0.0
52470.0,STARLINK-3859,PAYLOAD,2024-05-26 04:16:38,15.08841356,0.0001323,53.2175,108.3606,90.7605,269.3539,-4.7023e-05,-1.036e-05,0.0,0 STARLINK-3859,1 52470U 22049V   24147.17822439 -.00001036  00000-0 -47023-4 0  9991,2 52470  53.2175 108.3606 0001323  90.7605 269.3539 15.08841356113905,6917.876,95.437,540.656,538.826,0.0
52470.0,STARLINK-3859,PAYLOAD,2024-05-26 07:27:24,15.0884095,0.0001393,53.2177,107.7649,91.0978,269.0174,-3.9864e-05,-9.22e-06,0.0,0 STARLINK-3859,1 52470U 22049V   24147.31070396 -.00000922  00000-0 -39864-4 0  9991,2 52470  53.2177 107.7649 0001393  91.0978 269.0174 15.08840950113766,6917.877,95.437,540.706,538.779,0.0
52470.0,STARLINK-3859,PAYLOAD,2024-05-26 21:45:53,15.08834459,0.0001249,53.2174,105.0874,91.5121,268.6014,2.1408e-05,5.3e-07,0.0,0 STARLINK-3859,1 52470U 22049V   24147.90686867  .00000053  00000-0  21408-4 0  9990,2 52470  53.2174 105.0874 0001249  91.5121 268.6014 15.08834459113854,6917.897,95.438,540.626,538.898,0.0
52470.0,STARLINK-3859,PAYLOAD,2024-05-27 07:18:12,15.08838908,0.0001271,53.2174,103.3031,91.8391,268.2746,5.4746e-05,5.83e-06,0.0,0 STARLINK-3859,1 52470U 22049V   24148.30430575  .00000583  00000-0  54746-4 0  9997,2 52470  53.2174 103.3031 0001271  91.8391 268.2746 15.08838908114073,6917.884,95.438,540.628,538.869,0.0
52470.0,STARLINK-3859,PAYLOAD,2024-05-27 13:39:44,15.08836968,0.0001172,53.2178,102.1159,101.9794,258.133,-3.1606e-06,-3.38e-06,0.0,0 STARLINK-3859,1 52470U 22049V   24148.56926708 -.00000338  00000-0 -31606-5 0  9994,2 52470  53.2178 102.1159 0001172 101.9794 258.1330 15.08836968113952,6917.89,95.438,540.565,538.944,0.0
52470.0,STARLINK-3859,PAYLOAD,2024-05-28 13:30:31,15.08836052,0.0001308,53.2178,97.6525,102.7931,257.3208,5.9111e-05,6.53e-06,0.0,0 STARLINK-3859,1 52470U 22049V   24149.56287002  .00000653  00000-0  59111-4 0  9990,2 52470  53.2178  97.6525 0001308 102.7931 257.3208 15.08836052114107,6917.892,95.438,540.662,538.853,0.0
52470.0,STARLINK-3859,PAYLOAD,2024-05-29 05:24:23,15.08842143,0.0001249,53.2174,94.6791,95.1344,264.9791,6.4729e-05,7.42e-06,0.0,0 STARLINK-3859,1 52470U 22049V   24150.22526723  .00000742  00000-0  64729-4 0  9991,2 52470  53.2174  94.6791 0001249  95.1344 264.9791 15.08842143114202,6917.874,95.437,540.603,538.875,0.0
52470.0,STARLINK-3859,PAYLOAD,2024-05-30 03:39:46,15.08843665,0.0001341,53.218,90.5161,87.082,273.0326,0.0001004,1.31e-05,0.0,0 STARLINK-3859,1 52470U 22049V   24151.15262632  .00001310  00000-0  10040-3 0  9998,2 52470  53.2180  90.5161 0001341  87.0820 273.0326 15.08843665114505,6917.869,95.437,540.662,538.807,0.0
52470.0,STARLINK-3859,PAYLOAD,2024-05-30 03:39:47,15.08844064,0.0001508,53.2187,90.517,77.426,282.6901,0.00010218,1.339e-05,0.0,0 STARLINK-3859,1 52470U 22049V   24151.15262755  .00001339  00000-0  10218-3 0  9992,2 52470  53.2187  90.5170 0001508  77.4260 282.6901 15.08844064114349,6917.868,95.437,540.776,538.69,0.0
52470.0,STARLINK-3859,PAYLOAD,2024-05-31 00:19:47,15.08846106,0.0001439,53.2187,86.6505,83.9278,276.1878,7.8983e-05,9.69e-06,0.0,0 STARLINK-3859,1 52470U 22049V   24152.01374446  .00000969  00000-0  78983-4 0  9991,2 52470  53.2187  86.6505 0001439  83.9278 276.1878 15.08846106114475,6917.862,95.437,540.722,538.731,0.0
52470.0,STARLINK-3859,PAYLOAD,2024-05-31 19:24:25,15.08844252,0.0001459,53.2188,83.0846,87.107,273.009,-2.4954e-05,-6.85e-06,0.0,0 STARLINK-3859,1 52470U 22049V   24152.80862578 -.00000685  00000-0 -24954-4 0  9992,2 52470  53.2188  83.0846 0001459  87.1070 273.0090 15.08844252114756,6917.867,95.437,540.742,538.723,0.0
52470.0,STARLINK-3859,PAYLOAD,2024-06-01 04:56:44,15.08838251,0.0001471,53.2194,81.2996,92.6495,267.4666,-3.324e-05,-8.17e-06,0.0,0 STARLINK-3859,1 52470U 22049V   24153.20606984 -.00000817  00000-0 -33240-4 0  9999,2 52470  53.2194  81.2996 0001471  92.6495 267.4666 15.08838251114810,6917.886,95.438,540.768,538.733,0.0
52470.0,STARLINK-3859,PAYLOAD,2024-06-02 01:36:45,15.08840091,0.0001508,53.2192,77.4338,94.0068,266.1096,1.3473e-05,-7.4e-07,0.0,0 STARLINK-3859,1 52470U 22049V   24154.06718791 -.00000074  00000-0  13473-4 0  9994,2 52470  53.2192  77.4338 0001508  94.0068 266.1096 15.08840091114782,6917.88,95.438,540.788,538.702,0.0
52470.0,STARLINK-3859,PAYLOAD,2024-06-02 19:05:59,15.08833253,0.0001391,53.2182,74.1631,88.9639,271.1512,4.4838e-05,4.26e-06,0.0,0 STARLINK-3859,1 52470U 22049V   24154.79583235  .00000426  00000-0  44838-4 0  9996,2 52470  53.2182  74.1631 0001391  88.9639 271.1512 15.08833253115059,6917.901,95.438,540.728,538.804,0.0
52470.0,STARLINK-3859,PAYLOAD,2024-06-03 10:59:51,15.0883794,0.0001367,53.2189,71.1923,96.9551,263.1596,7.132e-05,8.47e-06,0.0,0 STARLINK-3859,1 52470U 22049V   24155.45823071  .00000847  00000-0  71320-4 0  9998,2 52470  53.2189  71.1923 0001367  96.9551 263.1596 15.08837940114994,6917.887,95.438,540.697,538.806,0.0
52470.0,STARLINK-3859,PAYLOAD,2024-06-03 17:21:24,15.08820218,0.0001411,53.2189,70.0027,109.6467,250.4678,0.00032704,4.918e-05,0.0,0 STARLINK-3859,1 52470U 22049V   24155.72319679  .00004918  00000-0  32704-3 0  9997,2 52470  53.2189  70.0027 0001411 109.6467 250.4678 15.08820218115031,6917.941,95.439,540.782,538.83,0.0
52470.0,STARLINK-3859,PAYLOAD,2024-06-04 01:18:19,15.08842983,0.0001414,53.2189,68.5162,105.0687,255.0461,6.9816e-05,8.23e-06,0.0,0 STARLINK-3859,1 52470U 22049V   24156.05438790  .00000823  00000-0  69816-4 0  9996,2 52470  53.2189  68.5162 0001414 105.0687 255.0461 15.08842983115247,6917.871,95.437,540.714,538.758,0.0
52470.0,STARLINK-3859,PAYLOAD,2024-06-05 04:19:52,15.08845583,0.0001328,53.2196,63.4599,92.1054,268.009,7.3663e-05,8.85e-06,0.0,0 STARLINK-3859,1 52470U 22049V   24157.18046730  .00000885  00000-0  73663-4 0  9993,2 52470  53.2196  63.4599 0001328  92.1054 268.0090 15.08845583115411,6917.863,95.437,540.647,538.81,0.0
52470.0,STARLINK-3859,PAYLOAD,2024-06-05 10:41:26,15.08827482,0.0001954,53.2196,62.271,93.7017,266.4199,-8.2957e-05,-1.608e-05,0.0,0 STARLINK-3859,1 52470U 22049V   24157.44544478 -.00001608  00000-0 -82957-4 0  9996,2 52470  53.2196  62.2710 0001954  93.7017 266.4199 15.08827482115458,6917.919,95.438,541.135,538.432,0.0
52470.0,STARLINK-3859,PAYLOAD,2024-06-05 17:02:58,15.0882712,0.0001345,53.2175,61.0785,87.7028,272.4118,4.5993e-05,4.44e-06,0.0,0 STARLINK-3859,1 52470U 22049V   24157.71040005  .00000444  00000-0  45993-4 0  9997,2 52470  53.2175  61.0785 0001345  87.7028 272.4118 15.08827120115337,6917.92,95.438,540.715,538.854,0.0
52470.0,STARLINK-3859,PAYLOAD,2024-06-06 00:59:53,15.08841982,0.0001263,53.2164,59.5926,91.5062,268.6074,-5.9248e-06,-3.82e-06,0.0,0 STARLINK-3859,1 52470U 22049V   24158.04159272 -.00000382  00000-0 -59248-5 0  9993,2 52470  53.2164  59.5926 0001263  91.5062 268.6074 15.08841982115547,6917.874,95.437,540.613,538.866,0.0
52470.0,STARLINK-3859,PAYLOAD,2024-06-06 10:32:12,15.08837429,0.0001309,53.2168,57.8089,89.4813,270.6329,3.4994e-05,2.69e-06,0.0,0 STARLINK-3859,1 52470U 22049V   24158.43903535  .00000269  00000-0  34994-4 0  9997,2 52470  53.2168  57.8089 0001309  89.4813 270.6329 15.08837429115449,6917.888,95.438,540.659,538.848,0.0
52470.0,STARLINK-3859,PAYLOAD,2024-06-07 23:06:05,15.08834086,0.0001137,53.2146,50.9697,83.4382,276.6739,2.5356e-05,1.16e-06,0.0,0 STARLINK-3859,1 52470U 22049V   24159.96256065  .00000116  00000-0  25356-4 0  9998,2 52470  53.2146  50.9697 0001137  83.4382 276.6739 15.08834086115670,6917.898,95.438,540.55,538.977,0.0
52470.0,STARLINK-3859,PAYLOAD,2024-06-08 02:16:50,15.08847402,0.0001193,53.2191,50.3716,111.5528,248.5591,2.2846e-05,7.6e-07,0.0,0 STARLINK-3859,1 52470U 22049V   24160.09503153  .00000076  00000-0  22846-4 0  9993,2 52470  53.2191  50.3716 0001193 111.5528 248.5591 15.08847402115853,6917.858,95.437,540.548,538.897,0.0
